{
  "type": "FeatureCollection",
  "features": [
    {
      "type": "Feature",
      "properties": {
        "norad_id": 43706,
        "name": "BEIDOU-3 M17 (C36)",
        "group": "beidou",
        "lat": 37.50687784525647,
        "lon": -25.33780204634923,
        "alt_km": 21540.662159462347,
        "timestamp": "2025-12-20T16:47:36.552191+00:00",
        "meta_object_name": "BEIDOU-3 M17 (C36)",
        "meta_object_id": "2018-093A",
        "meta_epoch": "2025-12-20T12:04:20.840736",
        "meta_mean_motion": 1.86228485,
        "meta_eccentricity": 0.0006088,
        "meta_inclination": 54.1751,
        "meta_ra_of_asc_node": 188.3582,
        "meta_arg_of_pericenter": 307.8758,
        "meta_mean_anomaly": 51.559,
        "meta_ephemeris_type": 0,
        "meta_classification_type": "U",
        "meta_norad_cat_id": 43706,
        "meta_element_set_no": 999,
        "meta_rev_at_epoch": 4820,
        "meta_bstar": 0,
        "meta_mean_motion_dot": 9.7e-07,
        "meta_mean_motion_ddot": 0,
        "tle_line1": "1 43706U 18093A   25354.50301899  .00000097  00000+0  00000+0 0  9999",
        "tle_line2": "2 43706  54.1751 188.3582 0006088 307.8758  51.5590  1.86228485 48203"
      },
      "geometry": {
        "type": "Point",
        "coordinates": [
          -25.33780204634923,
          37.50687784525647
        ]
      }
    },
    {
      "type": "Feature",
      "properties": {
        "norad_id": 43707,
        "name": "BEIDOU-3 M18 (C37)",
        "group": "beidou",
        "lat": -34.32596613211523,
        "lon": 37.92480861154821,
        "alt_km": 21543.829395941557,
        "timestamp": "2025-12-20T16:47:36.552202+00:00",
        "meta_object_name": "BEIDOU-3 M18 (C37)",
        "meta_object_id": "2018-093B",
        "meta_epoch": "2025-12-19T19:53:02.312736",
        "meta_mean_motion": 1.86226834,
        "meta_eccentricity": 0.00062874,
        "meta_inclination": 54.1737,
        "meta_ra_of_asc_node": 188.373,
        "meta_arg_of_pericenter": 353.4895,
        "meta_mean_anomaly": 6.5612,
        "meta_ephemeris_type": 0,
        "meta_classification_type": "U",
        "meta_norad_cat_id": 43707,
        "meta_element_set_no": 999,
        "meta_rev_at_epoch": 4819,
        "meta_bstar": 0,
        "meta_mean_motion_dot": 1e-06,
        "meta_mean_motion_ddot": 0,
        "tle_line1": "1 43707U 18093B   25353.82849899  .00000100  00000+0  00000+0 0  9996",
        "tle_line2": "2 43707  54.1737 188.3730 0006287 353.4895   6.5612  1.86226834 48192"
      },
      "geometry": {
        "type": "Point",
        "coordinates": [
          37.92480861154821,
          -34.32596613211523
        ]
      }
    },
    {
      "type": "Feature",
      "properties": {
        "norad_id": 44231,
        "name": "BEIDOU-2 G8 (C01)",
        "group": "beidou",
        "lat": 1.3325449857634515,
        "lon": 125.90881912179812,
        "alt_km": 35815.31054414891,
        "timestamp": "2025-12-20T16:47:36.552213+00:00",
        "meta_object_name": "BEIDOU-2 G8 (C01)",
        "meta_object_id": "2019-027A",
        "meta_epoch": "2025-12-19T12:14:23.449632",
        "meta_mean_motion": 1.00276563,
        "meta_eccentricity": 0.0008196,
        "meta_inclination": 1.6785,
        "meta_ra_of_asc_node": 74.7229,
        "meta_arg_of_pericenter": 258.5641,
        "meta_mean_anomaly": 83.1013,
        "meta_ephemeris_type": 0,
        "meta_classification_type": "U",
        "meta_norad_cat_id": 44231,
        "meta_element_set_no": 999,
        "meta_rev_at_epoch": 2427,
        "meta_bstar": 0,
        "meta_mean_motion_dot": -2.24e-06,
        "meta_mean_motion_ddot": 0,
        "tle_line1": "1 44231U 19027A   25353.50999363 -.00000224  00000+0  00000+0 0  9992",
        "tle_line2": "2 44231   1.6785  74.7229 0008196 258.5641  83.1013  1.00276563 24270"
      },
      "geometry": {
        "type": "Point",
        "coordinates": [
          125.90881912179812,
          1.3325449857634515
        ]
      }
    },
    {
      "type": "Feature",
      "properties": {
        "norad_id": 44337,
        "name": "BEIDOU-3 IGSO-2 (C39)",
        "group": "beidou",
        "lat": -44.78651683523501,
        "lon": 116.73635813997325,
        "alt_km": 35816.054888787454,
        "timestamp": "2025-12-20T16:47:36.552226+00:00",
        "meta_object_name": "BEIDOU-3 IGSO-2 (C39)",
        "meta_object_id": "2019-035A",
        "meta_epoch": "2025-12-20T08:39:57.339648",
        "meta_mean_motion": 1.00269066,
        "meta_eccentricity": 0.0037585,
        "meta_inclination": 55.2282,
        "meta_ra_of_asc_node": 160.4344,
        "meta_arg_of_pericenter": 202.2219,
        "meta_mean_anomaly": 335.9377,
        "meta_ephemeris_type": 0,
        "meta_classification_type": "U",
        "meta_norad_cat_id": 44337,
        "meta_element_set_no": 999,
        "meta_rev_at_epoch": 2387,
        "meta_bstar": 0,
        "meta_mean_motion_dot": -6.5e-07,
        "meta_mean_motion_ddot": 0,
        "tle_line1": "1 44337U 19035A   25354.36108032 -.00000065  00000+0  00000+0 0  9991",
        "tle_line2": "2 44337  55.2282 160.4344 0037585 202.2219 335.9377  1.00269066 23872"
      },
      "geometry": {
        "type": "Point",
        "coordinates": [
          116.73635813997325,
          -44.78651683523501
        ]
      }
    },
    {
      "type": "Feature",
      "properties": {
        "norad_id": 44542,
        "name": "BEIDOU-3 M24 (C46)",
        "group": "beidou",
        "lat": 2.684157938346528,
        "lon": 6.827246470702881,
        "alt_km": 21551.521910075542,
        "timestamp": "2025-12-20T16:47:36.552237+00:00",
        "meta_object_name": "BEIDOU-3 M24 (C46)",
        "meta_object_id": "2019-061A",
        "meta_epoch": "2025-12-19T21:35:13.024320",
        "meta_mean_motion": 1.86229464,
        "meta_eccentricity": 0.00096018,
        "meta_inclination": 54.4003,
        "meta_ra_of_asc_node": 188.7744,
        "meta_arg_of_pericenter": 25.6941,
        "meta_mean_anomaly": 334.4131,
        "meta_ephemeris_type": 0,
        "meta_classification_type": "U",
        "meta_norad_cat_id": 44542,
        "meta_element_set_no": 999,
        "meta_rev_at_epoch": 4245,
        "meta_bstar": 0,
        "meta_mean_motion_dot": 1e-06,
        "meta_mean_motion_ddot": 0,
        "tle_line1": "1 44542U 19061A   25353.89945630  .00000100  00000+0  00000+0 0  9997",
        "tle_line2": "2 44542  54.4003 188.7744 0009601  25.6941 334.4131  1.86229464 42455"
      },
      "geometry": {
        "type": "Point",
        "coordinates": [
          6.827246470702881,
          2.684157938346528
        ]
      }
    },
    {
      "type": "Feature",
      "properties": {
        "norad_id": 44543,
        "name": "BEIDOU-3 M23 (C45)",
        "group": "beidou",
        "lat": 54.36010891401205,
        "lon": -82.31897880585039,
        "alt_km": 21514.607132722387,
        "timestamp": "2025-12-20T16:47:36.552248+00:00",
        "meta_object_name": "BEIDOU-3 M23 (C45)",
        "meta_object_id": "2019-061B",
        "meta_epoch": "2025-12-20T12:51:14.567328",
        "meta_mean_motion": 1.86227656,
        "meta_eccentricity": 0.000608,
        "meta_inclination": 54.3994,
        "meta_ra_of_asc_node": 188.7213,
        "meta_arg_of_pericenter": 25.3001,
        "meta_mean_anomaly": 314.0126,
        "meta_ephemeris_type": 0,
        "meta_classification_type": "U",
        "meta_norad_cat_id": 44543,
        "meta_element_set_no": 999,
        "meta_rev_at_epoch": 4246,
        "meta_bstar": 0,
        "meta_mean_motion_dot": 9.7e-07,
        "meta_mean_motion_ddot": 0,
        "tle_line1": "1 44543U 19061B   25354.53558527  .00000097  00000+0  00000+0 0  9990",
        "tle_line2": "2 44543  54.3994 188.7213 0006080  25.3001 314.0126  1.86227656 42467"
      },
      "geometry": {
        "type": "Point",
        "coordinates": [
          -82.31897880585039,
          54.36010891401205
        ]
      }
    },
    {
      "type": "Feature",
      "properties": {
        "norad_id": 44793,
        "name": "BEIDOU-3 M22 (C44)",
        "group": "beidou",
        "lat": -51.88357619811052,
        "lon": -121.17546545592369,
        "alt_km": 21536.62857131497,
        "timestamp": "2025-12-20T16:47:36.552259+00:00",
        "meta_object_name": "BEIDOU-3 M22 (C44)",
        "meta_object_id": "2019-078A",
        "meta_epoch": "2025-12-19T04:51:35.344224",
        "meta_mean_motion": 1.86232161,
        "meta_eccentricity": 0.0006038,
        "meta_inclination": 54.1023,
        "meta_ra_of_asc_node": 306.1592,
        "meta_arg_of_pericenter": 24.3104,
        "meta_mean_anomaly": 335.7082,
        "meta_ephemeris_type": 0,
        "meta_classification_type": "U",
        "meta_norad_cat_id": 44793,
        "meta_element_set_no": 999,
        "meta_rev_at_epoch": 4129,
        "meta_bstar": 0,
        "meta_mean_motion_dot": -7.7e-07,
        "meta_mean_motion_ddot": 0,
        "tle_line1": "1 44793U 19078A   25353.20249241 -.00000077  00000+0  00000+0 0  9997",
        "tle_line2": "2 44793  54.1023 306.1592 0006038  24.3104 335.7082  1.86232161 41295"
      },
      "geometry": {
        "type": "Point",
        "coordinates": [
          -121.17546545592369,
          -51.88357619811052
        ]
      }
    }
  ]
}